[{"OBJECT_NAME":"STARLINK-11730 [DTC]","OBJECT_ID":"2025-107L","EPOCH":"2026-03-09T16:00:03.000096","MEAN_MOTION":15.70909054,"ECCENTRICITY":0.00018691,"INCLINATION":43.0006,"RA_OF_ASC_NODE":98.6858,"ARG_OF_PERICENTER":273.7026,"MEAN_ANOMALY":348.0505,"EPHEMERIS_TYPE":0,"CLASSIFICATION_TYPE":"U","NORAD_CAT_ID":64074,"ELEMENT_SET_NO":999,"REV_AT_EPOCH":599,"BSTAR":-4.5450254e-5,"MEAN_MOTION_DOT":-6.294e-5,"MEAN_MOTION_DDOT":0},{"OBJECT_NAME":"OBJECT AA","OBJECT_ID":"2018-111AA","EPOCH":"2026-03-09T23:36:11.109888","MEAN_MOTION":15.74757696,"ECCENTRICITY":0.00074829,"INCLINATION":96.9708,"RA_OF_ASC_NODE":294.3811,"ARG_OF_PERICENTER":159.1179,"MEAN_ANOMALY":201.0394,"EPHEMERIS_TYPE":0,"CLASSIFICATION_TYPE":"U","NORAD_CAT_ID":43900,"ELEMENT_SET_NO":999,"REV_AT_EPOCH":40295,"BSTAR":0.00046694108,"MEAN_MOTION_DOT":0.00068892,"MEAN_MOTION_DDOT":0}]
